{"type":"FeatureCollection","features":[{"type":"Feature","properties":{},"geometry":{"type":"Polygon","coordinates":[[[-79.7810098073818,43.21905287975864],[-79.78094987613008,43.21911691453448],[-79.78100113390393,43.21914239121087],[-79.78096492543935,43.21918107883918],[-79.78105018346488,43.21922345462682],[-79.78108264395256,43.21918876806212],[-79.78110278159124,43.21919877707199],[-79.78116645408629,43.21913073799508],[-79.7810098073818,43.21905287975864]]]}},{"type":"Feature","properties":{},"geometry":{"type":"Polygon","coordinates":[[[-79.78380421980624,43.21910142332537],[-79.78368711927848,43.21907939056182],[-79.78355751771595,43.21944519140935],[-79.78367465316445,43.21946722463679],[-79.78380421980624,43.21910142332537]]]}},{"type":"Feature","properties":{},"geometry":{"type":"Polygon","coordinates":[[[-79.78141372198965,43.21949735000381],[-79.78145168061437,43.21944851372625],[-79.78137451176458,43.21941666464345],[-79.78134000392393,43.21946106128421],[-79.7813107224176,43.21944897624239],[-79.78125711915784,43.21951794888669],[-79.78141754913503,43.21958416950739],[-79.78146770674833,43.21951963053429],[-79.78141372198965,43.21949735000381]]]}},{"type":"Feature","properties":{},"geometry":{"type":"Polygon","coordinates":[[[-79.78189665907703,43.21994977640657],[-79.78175001758751,43.21991065296353],[-79.78168160980015,43.22004681588011],[-79.78182825128965,43.22008593923579],[-79.78189665907703,43.21994977640657]]]}},{"type":"Feature","properties":{},"geometry":{"type":"Polygon","coordinates":[[[-79.78136757621967,43.21893459420136],[-79.78124140282524,43.21886628964272],[-79.78116693296101,43.21893934417493],[-79.78129310635542,43.21900764865174],[-79.78136757621967,43.21893459420136]]]}},{"type":"Feature","properties":{},"geometry":{"type":"Polygon","coordinates":[[[-79.78204129500924,43.21967707913831],[-79.78187580864005,43.21965378381835],[-79.7818937899942,43.21958594880876],[-79.78175933231924,43.21956702133367],[-79.7817313613239,43.21967254245985],[-79.7819134223731,43.21969817096949],[-79.78188744023407,43.21979615339063],[-79.78200533230093,43.21981274887926],[-79.78204129500924,43.21967707913831]]]}},{"type":"Feature","properties":{},"geometry":{"type":"Polygon","coordinates":[[[-79.78254689857074,43.2189529883188],[-79.7823929599012,43.21891492445064],[-79.78235593536027,43.21899444372117],[-79.78250987730812,43.21903250049869],[-79.78254689857074,43.2189529883188]]]}},{"type":"Feature","properties":{},"geometry":{"type":"Polygon","coordinates":[[[-79.78084409158635,43.21924095742803],[-79.78096390355526,43.21931572345559],[-79.78104341509672,43.21924806319128],[-79.78092359937871,43.21917329474122],[-79.78084409158635,43.21924095742803]]]}},{"type":"Feature","properties":{},"geometry":{"type":"Polygon","coordinates":[[[-79.78234701211122,43.21864093041005],[-79.78284261611697,43.21875121740306],[-79.78288055259874,43.2186606611429],[-79.78264120830302,43.21860741189729],[-79.78264522287078,43.2185978311055],[-79.7823889576411,43.21854080416459],[-79.78234701211122,43.21864093041005]]]}},{"type":"Feature","properties":{},"geometry":{"type":"Polygon","coordinates":[[[-79.78122934640301,43.21954368015327],[-79.78116289503153,43.21962391001354],[-79.78130051347944,43.21968444171116],[-79.78136696485093,43.21960421193053],[-79.78122934640301,43.21954368015327]]]}},{"type":"Feature","properties":{},"geometry":{"type":"Polygon","coordinates":[[[-79.7825750227629,43.22014635571915],[-79.78254711574135,43.22022932816228],[-79.7827242303213,43.22026096286052],[-79.78275213734284,43.22017799046046],[-79.7825750227629,43.22014635571915]]]}},{"type":"Feature","properties":{},"geometry":{"type":"Polygon","coordinates":[[[-79.78214506751623,43.21982723718078],[-79.78230219154506,43.21980396508375],[-79.78226659180272,43.2196763241526],[-79.78210946777389,43.21969959629834],[-79.78214506751623,43.21982723718078]]]}},{"type":"Feature","properties":{},"geometry":{"type":"Polygon","coordinates":[[[-79.78157195370504,43.21935143047905],[-79.78147901346586,43.21930081855872],[-79.78137612236489,43.21940115785821],[-79.7814690626041,43.21945176969527],[-79.78157195370504,43.21935143047905]]]}},{"type":"Feature","properties":{},"geometry":{"type":"Polygon","coordinates":[[[-79.78172865093603,43.21919377355619],[-79.78173241112053,43.21919774877112],[-79.78179968847864,43.21916395646811],[-79.78173123097197,43.21909158406007],[-79.78158758941878,43.21916374022303],[-79.78165228204305,43.21923213236644],[-79.78172865093603,43.21919377355619]]]}},{"type":"Feature","properties":{},"geometry":{"type":"Polygon","coordinates":[[[-79.78184799848977,43.21925717971175],[-79.78182068867274,43.21933282630192],[-79.78200275956648,43.21936772401077],[-79.78205711175072,43.21921713158255],[-79.78189154280258,43.21918538829581],[-79.7818644905057,43.21926034159868],[-79.78184799848977,43.21925717971175]]]}},{"type":"Feature","properties":{},"geometry":{"type":"Polygon","coordinates":[[[-79.78313356112761,43.21792973627868],[-79.78300243166449,43.21790562527045],[-79.78287544562323,43.21827250412675],[-79.78300657726282,43.21829660870181],[-79.78313356112761,43.21792973627868]]]}},{"type":"Feature","properties":{},"geometry":{"type":"Polygon","coordinates":[[[-79.78072770426363,43.2193585041842],[-79.78086061436434,43.21942512691871],[-79.78093000616421,43.21935161782914],[-79.78079710040711,43.21928499041293],[-79.78072770426363,43.2193585041842]]]}},{"type":"Feature","properties":{},"geometry":{"type":"Polygon","coordinates":[[[-79.78200706648474,43.21779200527788],[-79.78189286278774,43.21774527765359],[-79.78169592375568,43.21800090196834],[-79.78181012745269,43.21804762939672],[-79.78200706648474,43.21779200527788]]]}},{"type":"Feature","properties":{},"geometry":{"type":"Polygon","coordinates":[[[-79.78186764045482,43.22008904470948],[-79.78200138682132,43.22011348593996],[-79.7820456843532,43.21998475876403],[-79.7819119379867,43.21996031748194],[-79.78186764045482,43.22008904470948]]]}},{"type":"Feature","properties":{},"geometry":{"type":"Polygon","coordinates":[[[-79.78399459494368,43.2187016567596],[-79.78387733492863,43.21867824219801],[-79.78373992805136,43.21904368775565],[-79.7838571880664,43.21906710217691],[-79.78399459494368,43.2187016567596]]]}},{"type":"Feature","properties":{},"geometry":{"type":"Polygon","coordinates":[[[-79.78173371622665,43.21877227538862],[-79.78190893350202,43.21881308961049],[-79.78196571761637,43.21868362751554],[-79.781790500341,43.218642813207],[-79.78173371622665,43.21877227538862]]]}},{"type":"Feature","properties":{},"geometry":{"type":"Polygon","coordinates":[[[-79.78239551087054,43.21929977898661],[-79.78235469243619,43.21940895177637],[-79.78252198126202,43.21944216801221],[-79.7825627996964,43.21933299528193],[-79.78239551087054,43.21929977898661]]]}},{"type":"Feature","properties":{},"geometry":{"type":"Polygon","coordinates":[[[-79.78081356483202,43.21948257933887],[-79.78071255672661,43.21939167915832],[-79.7805764803086,43.21947197910593],[-79.780677488414,43.21956287916677],[-79.78081356483202,43.21948257933887]]]}},{"type":"Feature","properties":{},"geometry":{"type":"Polygon","coordinates":[[[-79.78236640144657,43.21884335607701],[-79.78217911716992,43.21881229223337],[-79.78213791989353,43.21894423858798],[-79.78232519212212,43.21897530036603],[-79.78236640144657,43.21884335607701]]]}},{"type":"Feature","properties":{},"geometry":{"type":"Polygon","coordinates":[[[-79.78202282326676,43.22011981925385],[-79.78215474418764,43.22014659803369],[-79.78219495820198,43.22004139420208],[-79.78213770950049,43.22002977320354],[-79.78214464295124,43.22001163459008],[-79.78206997073187,43.21999647675806],[-79.78202282326676,43.22011981925385]]]}},{"type":"Feature","properties":{},"geometry":{"type":"Polygon","coordinates":[[[-79.78330976325644,43.21847611518898],[-79.78318104268227,43.2184526245825],[-79.78308307600349,43.21873771716988],[-79.78321179657765,43.21876120766654],[-79.78330976325644,43.21847611518898]]]}},{"type":"Feature","properties":{},"geometry":{"type":"Polygon","coordinates":[[[-79.7829868683935,43.21942105961628],[-79.78283055743017,43.21939011078938],[-79.78278371937202,43.21951570605192],[-79.78290507205676,43.2195397332579],[-79.7829183993957,43.21950398711498],[-79.78295336828815,43.21951091256123],[-79.7829868683935,43.21942105961628]]]}},{"type":"Feature","properties":{},"geometry":{"type":"Polygon","coordinates":[[[-79.78156278377912,43.21986476692895],[-79.78143622039832,43.21983854624415],[-79.78138260124389,43.21997598796141],[-79.78150916462468,43.22000220858712],[-79.78156278377912,43.21986476692895]]]}},{"type":"Feature","properties":{},"geometry":{"type":"Polygon","coordinates":[[[-79.78194312134833,43.21886106561006],[-79.78212582124178,43.21888565686524],[-79.78215984713212,43.21875145706893],[-79.78197713477527,43.21872686408205],[-79.78194312134833,43.21886106561006]]]}},{"type":"Feature","properties":{},"geometry":{"type":"Polygon","coordinates":[[[-79.78399658571031,43.21931463989789],[-79.78411918613529,43.21933861408374],[-79.78423802262887,43.21901588251347],[-79.7841154222039,43.21899190820073],[-79.78399658571031,43.21931463989789]]]}},{"type":"Feature","properties":{},"geometry":{"type":"Polygon","coordinates":[[[-79.78087721605097,43.21868331356453],[-79.78100461957902,43.21869981221654],[-79.78109521447298,43.21832843226234],[-79.78096781094494,43.21831193350984],[-79.78087721605097,43.21868331356453]]]}},{"type":"Feature","properties":{},"geometry":{"type":"Polygon","coordinates":[[[-79.78338926071851,43.21983546752431],[-79.78350804140322,43.21985690135202],[-79.78360128534443,43.2195824896293],[-79.78348250465974,43.21956105570511],[-79.78338926071851,43.21983546752431]]]}},{"type":"Feature","properties":{},"geometry":{"type":"Polygon","coordinates":[[[-79.78153807222176,43.22001466591831],[-79.78166039916441,43.22004105076623],[-79.78171558325549,43.21990515154214],[-79.78159326598382,43.2198787749599],[-79.78153807222176,43.22001466591831]]]}},{"type":"Feature","properties":{},"geometry":{"type":"Polygon","coordinates":[[[-79.78294727536831,43.21836331427289],[-79.78244586521107,43.21825958577519],[-79.78240897600305,43.21835430942041],[-79.78291039537747,43.21845801408927],[-79.78294727536831,43.21836331427289]]]}},{"type":"Feature","properties":{},"geometry":{"type":"Polygon","coordinates":[[[-79.78098905630169,43.21824437739828],[-79.7811133797263,43.21829702068528],[-79.78131028587023,43.21805006022949],[-79.78121203026045,43.2180084548863],[-79.78114794837929,43.21808882679692],[-79.78112188056446,43.21807778865443],[-79.78098905630169,43.21824437739828]]]}},{"type":"Feature","properties":{},"geometry":{"type":"Polygon","coordinates":[[[-79.78124903194319,43.21969644270659],[-79.78113553009105,43.21962953972862],[-79.78104635369586,43.21970988912205],[-79.78115985554798,43.21977679201186],[-79.78124903194319,43.21969644270659]]]}},{"type":"Feature","properties":{},"geometry":{"type":"Polygon","coordinates":[[[-79.78270925054805,43.21967631314361],[-79.78283748839114,43.21970397307408],[-79.78284963710787,43.21967406901626],[-79.782880683157,43.21968076699852],[-79.78291890355705,43.21958666517865],[-79.78275962738292,43.2195523104475],[-79.78270925054805,43.21967631314361]]]}},{"type":"Feature","properties":{},"geometry":{"type":"Polygon","coordinates":[[[-79.78260920618175,43.21892199245828],[-79.78255923615865,43.2190440428933],[-79.78274642085478,43.21908474222921],[-79.78279639087788,43.21896269187564],[-79.78260920618175,43.21892199245828]]]}},{"type":"Feature","properties":{},"geometry":{"type":"Polygon","coordinates":[[[-79.78174440810307,43.21862831901382],[-79.7815909159582,43.21859279225969],[-79.78155561196546,43.21867377850186],[-79.78170910101039,43.21870931231985],[-79.78174440810307,43.21862831901382]]]}},{"type":"Feature","properties":{},"geometry":{"type":"Polygon","coordinates":[[[-79.78395520054292,43.21934746252077],[-79.7838557750324,43.21962359908954],[-79.78397622817101,43.2196466310628],[-79.78407565368154,43.21937049459833],[-79.78395520054292,43.21934746252077]]]}},{"type":"Feature","properties":{},"geometry":{"type":"Polygon","coordinates":[[[-79.7829679626144,43.21914069111508],[-79.78309669592194,43.21916416408263],[-79.78319459014283,43.21887904528724],[-79.7830658568353,43.21885557220993],[-79.7829679626144,43.21914069111508]]]}},{"type":"Feature","properties":{},"geometry":{"type":"Polygon","coordinates":[[[-79.78271240422364,43.22001009132641],[-79.78275327036495,43.22001676106022],[-79.78277385716987,43.21994975521365],[-79.78274065343005,43.21994433604901],[-79.78275037497681,43.21991269437085],[-79.78262114383939,43.21989160261044],[-79.7825822460772,43.22001816737924],[-79.78270382638826,43.22003801041046],[-79.78271240422364,43.22001009132641]]]}},{"type":"Feature","properties":{},"geometry":{"type":"Polygon","coordinates":[[[-79.78147383574857,43.21847242184776],[-79.78136726080139,43.21847877626141],[-79.78138273814957,43.21861663371642],[-79.78153727182301,43.21860741983723],[-79.78152571830957,43.2185045121735],[-79.78147775958334,43.21850737165822],[-79.78147383574857,43.21847242184776]]]}},{"type":"Feature","properties":{},"geometry":{"type":"Polygon","coordinates":[[[-79.78313109047815,43.21773225963285],[-79.78304962682182,43.21765434662408],[-79.78263725133493,43.2178833131794],[-79.78271871499125,43.21796122589561],[-79.78313109047815,43.21773225963285]]]}},{"type":"Feature","properties":{},"geometry":{"type":"Polygon","coordinates":[[[-79.7837148760839,43.21977770183479],[-79.7836823670951,43.21986429366837],[-79.78392293232895,43.21991225534069],[-79.7839554447683,43.21982567653288],[-79.7837148760839,43.21977770183479]]]}},{"type":"Feature","properties":{},"geometry":{"type":"Polygon","coordinates":[[[-79.78174143314436,43.21941352763882],[-79.78178626560978,43.21942258718046],[-79.78175518599262,43.21950426476423],[-79.78187079442151,43.21952762635465],[-79.78193115628082,43.21936903469783],[-79.78177070413433,43.21933660303618],[-79.78174143314436,43.21941352763882]]]}},{"type":"Feature","properties":{},"geometry":{"type":"Polygon","coordinates":[[[-79.78187892216354,43.21829681584038],[-79.78155408151011,43.21814105721656],[-79.78148018477202,43.21822290407894],[-79.78180503091133,43.21837866512411],[-79.78187892216354,43.21829681584038]]]}},{"type":"Feature","properties":{},"geometry":{"type":"Polygon","coordinates":[[[-79.78244562891128,43.21789336635207],[-79.78239512277209,43.21785127135765],[-79.78230767920098,43.21790699053798],[-79.78235818304894,43.2179490869539],[-79.78244562891128,43.21789336635207]]]}},{"type":"Feature","properties":{},"geometry":{"type":"Polygon","coordinates":[[[-79.78196393384486,43.21800189529082],[-79.78189100594403,43.21808192861473],[-79.782324710903,43.21829181147086],[-79.78239763880383,43.21821177842243],[-79.78196393384486,43.21800189529082]]]}},{"type":"Feature","properties":{},"geometry":{"type":"Polygon","coordinates":[[[-79.78121997981123,43.21993220798426],[-79.78134457625109,43.21996629506045],[-79.7814148367977,43.21982991171132],[-79.78129023748838,43.21979583012882],[-79.78121997981123,43.21993220798426]]]}},{"type":"Feature","properties":{},"geometry":{"type":"Polygon","coordinates":[[[-79.78115703352104,43.2189774273053],[-79.78105928073117,43.21902017021699],[-79.7811373745053,43.21911502926491],[-79.78123513399389,43.21907228349069],[-79.78115703352104,43.2189774273053]]]}},{"type":"Feature","properties":{},"geometry":{"type":"Polygon","coordinates":[[[-79.78229529787438,43.22004143808444],[-79.78222211424008,43.22003568618447],[-79.7822032410593,43.22016320657185],[-79.7823384608139,43.22017383420535],[-79.78235293994463,43.22007600312907],[-79.7822909061804,43.22007113072474],[-79.78229529787438,43.22004143808444]]]}},{"type":"Feature","properties":{},"geometry":{"type":"Polygon","coordinates":[[[-79.78183214217083,43.21842244010418],[-79.78227761977776,43.21861248029121],[-79.78233375104342,43.21854260255726],[-79.78211509787135,43.21844932535606],[-79.78213614522159,43.21842312034547],[-79.78190932266111,43.21832635789986],[-79.78183214217083,43.21842244010418]]]}},{"type":"Feature","properties":{},"geometry":{"type":"Polygon","coordinates":[[[-79.78269640210198,43.21972537206645],[-79.78264128794042,43.21984477605651],[-79.78276658627856,43.21987548925601],[-79.7827819858237,43.21984212641679],[-79.78281571999166,43.21985039535699],[-79.78285543460808,43.21976435427798],[-79.78269640210198,43.21972537206645]]]}},{"type":"Feature","properties":{},"geometry":{"type":"Polygon","coordinates":[[[-79.78116687771634,43.21980835379637],[-79.78102077148075,43.21972165126047],[-79.78094407082969,43.2197902904697],[-79.78109018603614,43.21987699077917],[-79.78116687771634,43.21980835379637]]]}},{"type":"Feature","properties":{},"geometry":{"type":"Polygon","coordinates":[[[-79.783441934081,43.21816852971438],[-79.78331664348939,43.21814264868131],[-79.78320826731012,43.21842127935206],[-79.78333353313279,43.21844715515041],[-79.783441934081,43.21816852971438]]]}},{"type":"Feature","properties":{},"geometry":{"type":"Polygon","coordinates":[[[-79.78254224941969,43.2195446582274],[-79.78237842479886,43.21951854698619],[-79.78234483332741,43.21963047013176],[-79.78250865794827,43.21965658132505],[-79.78254224941969,43.2195446582274]]]}},{"type":"Feature","properties":{},"geometry":{"type":"Polygon","coordinates":[[[-79.78254714304852,43.22012046444051],[-79.78240949900477,43.22009359098109],[-79.78237372703482,43.22019091527288],[-79.78251137348616,43.22021778213912],[-79.78254714304852,43.22012046444051]]]}}]}